#dP2026  5 31  0  0  0.00000000     289 d+D   IGc20 FIT AIUB
## 2421      0.00000000   300.00000000 61191 0.0000000000000
+  116   G01G02G03G04G05G06G07G08G09G10G11G12G13G14G15G16G17
+        G18G19G20G21G22G23G24G25G26G27G28G29G30G31G32R02R03
+        R04R05R06R07R08R09R11R12R14R15R16R17R18R19R20R21R22
+        R24R26E02E03E04E05E06E07E08E09E10E11E12E13E14E15E16
+        E18E19E21E23E25E26E27E28E29E30E31E32E33E34E36C06C07
+        C08C11C12C13C14C19C20C21C22C23C24C25C26C27C28C29C30
+        C31C32C33C34C35C36C37C38C39C41C42J02J03J04  0  0  0
++         5  5  5  5  5  5  5  5  5  5  5  5  5  5  5  5  5
++         5  5  5  5  5  5  5  5  5  5  5  5  5  5  5  5  5
++         5  5  5  5  5  5  5  5  5  5  5  5  5  5  5  5  5
++         5  5  5  5  5  5  5  5  5  5  5  5  5  5  5  5  5
++         5  5  5  5  5  5  5  5  5  5  5  5  5  5  5  5  5
++         5  5  5  5  5  5  5  5  5  5  5  5  5  5  5  5  5
++         5  5  5  5  5  5  5  5  5  5  5  5  5  5  0  0  0
%c M  cc GPS ccc cccc cccc cccc cccc ccccc ccccc ccccc ccccc
%c cc cc ccc ccc cccc cccc cccc cccc ccccc ccccc ccccc ccccc
%f  1.2500000  1.025000000  0.00000000000  0.000000000000000
%f  0.0000000  0.000000000  0.00000000000  0.000000000000000
%i    0    0    0    0      0      0      0      0         0
%i    0    0    0    0      0      0      0      0         0
/* Center for Orbit Determination in Europe (CODE)                              
/* MGEX orbits and clocks for year-day 2026-1510                                
/* Middle day of a 3-day long-arc multi-GNSS solution                           
/* Systems considered: GPS/GLONASS/Galileo/BeiDou/QZSS                          
/* Product reference - DOI 10.48620/97775                                       
/* PCV:IGS20_2417 OL/AL:FES2014b NONE     YN ORB:CoN CLK:CoN                    
*  2026  5 31 17 30  0.00000000
PG01  10548.283486  14459.817834 -19660.971083    260.202778
PG02     27.089902  15051.979959 -21481.852244    109.719616
PG03  11555.707418  23822.100256  -2960.159600    440.882742
PG04   4259.508412  18020.754385  19005.018943     58.741286
PG05  -2274.281051 -21641.006943  15029.593055   -233.609007
PG06  24938.245037  -5048.577188   7952.530366   -597.191889
PG07  23111.956085   7830.342687  11569.540751   -190.788496
PG08  -3652.692564  24119.501614 -10094.379661    431.608430
PG09  12604.419048   8327.313976  21743.507172    743.265960
PG10 -16438.147979  -1586.653598 -20617.179707   -581.242144
PG11  15243.933429 -12171.102486  18041.795422   -322.031688
PG12  -9073.116266 -24619.010042  -4397.365163   -607.296410
PG13 -10978.130783 -23590.099213  -5323.513662    335.937724
PG14  18297.755337   4296.925947 -18782.138729    747.607886
PG15    105.551813 -24437.947799 -10902.084629    416.280568
PG16  -4869.943777  18547.060380  17798.268319    273.082626
PG17  18461.284817  -5585.293175 -18011.890125   -146.437864
PG18 -24513.327923  -6041.821464   8745.736625   -339.077325
PG19  19234.540286 -14236.129072 -10965.697321    701.041868
PG20   9463.127811 -24442.755929  -4310.364423    177.654020
PG21   7083.805061 -15769.659423  20154.740410    412.073203
PG22  15366.238951  -2445.649555 -21165.136920      7.762853
PG23 -18757.298709 -13401.029418 -13359.619824    653.610533
PG24  -4826.373655 -15471.836156 -21615.503980     38.376168
PG25 -17459.070665 -19050.075663   6292.488202    418.364282
PG26 -12298.112778   9937.034541  21093.344399   -370.647274
PG27 -12160.203221  23345.698984   -296.388213      0.333736
PG28 -25121.439614   5668.618876   6547.165102   -513.617703
PG29 -11028.748398 -10714.697833  21606.259336   -310.420595
PG30  26655.561675  -1280.834312   -683.231023    242.592203
PG31 -19511.568184  10308.592825  14705.534144   -145.487860
PG32 -18134.689565  11334.400157 -15358.747423     84.085367
PR02  -6584.114904  24480.555456  -2461.957280     12.188338
PR03   3084.688339  20063.416465  15458.923245     14.071094
PR04   9799.996165   4377.424881  23169.371891    358.464231
PR05  11602.484341 -13302.379997  18432.753567    168.906534
PR06   6887.281804 -24257.594386   3918.229884    -19.405235
PR07  -2890.768265 -20271.392132 -15201.096763    121.937116
PR08 -10009.735192  -3957.490456 -23064.910622     -4.951453
PR09  -1198.689184 -14422.417044 -20955.217006    329.365871
PR11 -20457.335149 -12987.209083   7948.320843      8.142904
PR12 -14162.798163   1067.147617  21218.882411     69.767135
PR14  14937.248693  18655.725743   8971.719609     32.719557
PR15  20461.699765  12659.064670  -8465.593483     55.703796
PR16  13967.966646  -1052.097703 -21311.833165     50.001844
PR17   8004.330048   8497.609470 -22672.800878    300.636437
PR18  21181.704577    309.345032 -14232.803948    264.051003
PR19  23785.186084  -8596.467336   3071.511743     49.698796
PR20  12079.261048 -12662.627659  18589.504598    233.129409
PR21  -4236.399944  -9859.150051  23134.702455   -312.600994
PR22 -22070.870476    147.957753  12803.668048    128.489093
PR24 -11081.848984  13254.229861 -18765.973128   -168.727872
PR26  -9036.119348  -7622.946132 -22578.845465    -27.195171
PE02   2366.627519 -25245.973877 -15284.823386     44.055737
PE03  13525.792232 -25002.660010  -8211.520792    -20.287345
PE04   3670.186919  19331.667903  22126.266022   -161.248966
PE05  22645.306400 -15964.305690  10396.816975     38.433668
PE06  12181.272041  11796.718576  24250.716278   -278.504322
PE07 -18507.151106  -2474.424019 -22969.700960    -67.421797
PE08  -3445.413261 -19300.687153 -22169.847980   -155.905704
PE09  18374.046983   2482.341778  23067.788655   -308.007032
PE10  23235.883164  12874.185492 -13065.207457   -795.794517
PE11  28505.229324   7377.315607  -3122.762000   5161.877160
PE12  15258.506977  15915.265039 -19769.828909    -48.709315
PE13 -28372.773069  -7630.458290   3549.252765    -56.012850
PE14  17731.081143 -12639.015132  -9763.730925   3380.949828
PE15 -14622.915728 -15977.839623  20169.793623   -262.543537
PE16  18720.617065  12549.306854 -19193.566331    -35.598276
PE18 -20309.190330  25053.975301   4246.793756   2840.947034
PE19 -14376.000485  24783.964397   7474.650442   2996.865376
PE21 -14911.747118   8373.021011  24162.670996   -746.333860
PE23  -2220.368448  25221.232651  15341.382804    -36.894521
PE25  15161.715717  -7757.241322 -24203.065578     21.913170
PE26 -25128.330694   5213.895619 -14747.260198    320.116815
PE27 -18618.385104 -13658.555994  18526.676254  -1003.822190
PE28  -4804.995620  23912.200861  16766.184868    -47.610378
PE29 -22686.998850  16020.736013 -10243.699107   -211.424254
PE30 -11680.707680 -27062.385286   2757.202546  -1102.924356
PE31  11270.813102  27293.701573  -2029.103102   -145.289778
PE32   4843.473945 -23922.787985 -16736.030331     14.497437
PE33  -7665.105264  14681.275955 -24534.380907    -17.193316
PE34   7451.566782 -14748.093143  24550.299330   -257.506466
PE36  25239.716642  -4918.876133  14667.511926   -573.371729
PC06  -4756.228667  31162.301911 -27836.101859    291.705261
PC07 -18644.247628  20096.055598  32080.524488    -25.166240
PC08 -22374.968196  35209.807493  -7165.834877   -236.705612
PC11  -7025.477677  19279.177833 -18908.084250   -694.825296
PC12  -2308.584982  27701.844960  -2539.118041    637.459849
PC13 -12464.765215 -11273.256706  22264.312884   -923.560192
PC14  12500.981833 -17447.568944  17821.988156   -340.322309
PC19   3843.695477  26699.714386   7254.517748   -939.327071
PC20  -6897.996938  25478.814150  -9129.525060   -905.228099
PC21  14863.226954  -8233.917443  22131.426230   -851.660532
PC22  13294.792426  12858.609855  20895.081603    454.739804
PC23 -23981.322848 -14277.791796    303.179201   -457.980131
PC24   8849.922273 -13793.202938 -22597.707783   -376.837901
PC25 -12643.982783 -19826.210461 -15055.361494    853.657455
PC26  22276.108642  -1146.394814 -16770.076021   -648.021600
PC27 -25668.023333   8912.920733   6340.104662    639.779184
PC28 -20953.760371  -3326.059528  18128.985850    523.288230
PC29   1676.241236  17352.692283 -21800.832549    611.162545
PC30 -16330.289527  19512.326714 -11458.763292    459.508436
PC31  25301.749757  -9979.026653  -6325.294201    795.288905
PC32 -14811.156494   8318.463077 -22140.477810   -913.631360
PC33  -3996.216724 -26657.632955  -7163.765863   -914.311411
PC34  16886.222317 -19377.241887  10864.738561    957.657200
PC35  19880.028393   4201.864485 -19164.892679   -408.675063
PC36  11670.538711  20115.102913  15436.081443    276.703534
PC37 -22821.638351   -228.246739  16089.031872   -940.024841
PC38  -3221.341885 -16816.555270  22019.178182    139.407630
PC39  23716.591457  14679.433049    100.765066   -884.474416
PC41 -12947.795246 -14109.612962 -20235.411176   -941.884517
PC42   8240.629468 -24097.164682  11379.543903   -892.397388
PJ02 -28804.197866  25199.578025  23092.774697     -0.323063
PJ03 -30455.265663  16733.624475 -19127.348455     -4.608238
PJ04 -22039.592851  33653.359778  -8019.405962      0.715971
EOF
